{"type":"Feature","properties":{"nom":"Eurométropole de Strasbourg","code":"246700488","codesDepartements":["67"],"codesRegions":["44"],"population":517386},"geometry":{"type":"Polygon","coordinates":[[[7.836038,48.633367],[7.834633,48.629323],[7.833496,48.626034],[7.832098,48.62289],[7.831403,48.621567],[7.830282,48.619806],[7.829119,48.618131],[7.828043,48.61681],[7.826588,48.615188],[7.823982,48.612531],[7.823394,48.61187],[7.822862,48.611319],[7.822293,48.610749],[7.8206,48.609],[7.820188,48.608568],[7.815301,48.603503],[7.813883,48.602048],[7.812604,48.600723],[7.809922,48.597963],[7.80654,48.594459],[7.804847,48.592682],[7.804172,48.59186],[7.803295,48.590653],[7.802527,48.589414],[7.80225,48.588937],[7.801607,48.587602],[7.80108,48.586245],[7.800823,48.585429],[7.800531,48.584283],[7.800327,48.583128],[7.800262,48.582572],[7.800197,48.581223],[7.800237,48.579873],[7.800277,48.579317],[7.800477,48.577973],[7.800815,48.576432],[7.801036,48.575702],[7.801347,48.574841],[7.801862,48.573595],[7.802305,48.572504],[7.802542,48.571897],[7.803002,48.570643],[7.803438,48.569335],[7.803856,48.568024],[7.804022,48.567467],[7.804337,48.56628],[7.8047,48.564726],[7.804855,48.56401],[7.805046,48.563061],[7.805233,48.561919],[7.805312,48.561311],[7.805532,48.559291],[7.805668,48.557978],[7.805821,48.555843],[7.805862,48.555029],[7.805883,48.554206],[7.805893,48.553139],[7.80586,48.551685],[7.805798,48.550559],[7.805567,48.548565],[7.805331,48.547075],[7.805069,48.545956],[7.804334,48.543517],[7.804061,48.542455],[7.803848,48.541364],[7.803691,48.540264],[7.803631,48.539459],[7.803591,48.538622],[7.803568,48.537608],[7.803573,48.537047],[7.803615,48.536075],[7.803954,48.533774],[7.804537,48.531496],[7.804986,48.53007],[7.805952,48.52685],[7.806368,48.525052],[7.806578,48.523915],[7.806664,48.523225],[7.806767,48.521488],[7.806613,48.519221],[7.80628,48.517303],[7.805831,48.515571],[7.805415,48.514289],[7.804938,48.513117],[7.804199,48.51168],[7.803344,48.510358],[7.802156,48.508706],[7.801352,48.507656],[7.800037,48.506084],[7.798434,48.504486],[7.79764,48.503783],[7.796676,48.502993],[7.796067,48.502539],[7.79483,48.501717],[7.792997,48.500697],[7.791965,48.500186],[7.790119,48.499395],[7.788193,48.498692],[7.783159,48.497079],[7.780706,48.496252],[7.778292,48.495375],[7.774721,48.493902],[7.773137,48.493199],[7.772495,48.4929],[7.771268,48.492262],[7.770795,48.491948],[7.770167,48.491531],[7.769102,48.490625],[7.768228,48.489634],[7.767754,48.48889],[7.767416,48.488113],[7.76723,48.487466],[7.767131,48.486811],[7.767124,48.486318],[7.767173,48.484502],[7.767273,48.479465],[7.767307,48.477362],[7.767285,48.476138],[7.76709,48.472048],[7.767023,48.470502],[7.766868,48.467239],[7.766795,48.465624],[7.766698,48.464161],[7.766617,48.463182],[7.766441,48.461881],[7.766194,48.460522],[7.765942,48.459387],[7.76549,48.457721],[7.765147,48.456675],[7.764226,48.45391],[7.764015,48.453332],[7.763498,48.452077],[7.762757,48.450364],[7.762317,48.449424],[7.761803,48.44844],[7.761045,48.447067],[7.760086,48.445404],[7.757671,48.441322],[7.753342,48.43399],[7.751596,48.434405],[7.750841,48.434626],[7.750282,48.434854],[7.749666,48.435086],[7.749077,48.435343],[7.748755,48.435429],[7.747917,48.435824],[7.746984,48.436236],[7.746399,48.436443],[7.745698,48.436791],[7.744153,48.437365],[7.740038,48.43885],[7.739965,48.439205],[7.739724,48.440075],[7.739589,48.440654],[7.740039,48.441965],[7.74071,48.44257],[7.745536,48.446975],[7.745853,48.447955],[7.742606,48.448859],[7.742213,48.44896],[7.741217,48.448235],[7.74093,48.448072],[7.740761,48.448015],[7.740027,48.447857],[7.738879,48.44768],[7.737832,48.447179],[7.737217,48.446671],[7.736018,48.445267],[7.734945,48.444724],[7.733168,48.444419],[7.732522,48.444343],[7.731945,48.444597],[7.731425,48.444801],[7.73036,48.445188],[7.729963,48.445297],[7.729875,48.44536],[7.729258,48.445584],[7.727873,48.44603],[7.726834,48.446331],[7.726586,48.44645],[7.725934,48.446723],[7.725427,48.446902],[7.724705,48.447111],[7.723652,48.447537],[7.723374,48.447635],[7.722943,48.447832],[7.722368,48.44802],[7.721772,48.448196],[7.721178,48.448414],[7.719258,48.449171],[7.717451,48.449691],[7.713459,48.450364],[7.712371,48.450587],[7.7115,48.450741],[7.710354,48.450893],[7.70927,48.450966],[7.708731,48.451032],[7.708694,48.450935],[7.708154,48.451019],[7.707709,48.451109],[7.707375,48.451224],[7.707092,48.451395],[7.706786,48.451652],[7.706,48.452364],[7.704823,48.453545],[7.70401,48.4543],[7.702826,48.454299],[7.702309,48.45281],[7.702523,48.452731],[7.701623,48.451211],[7.701279,48.451273],[7.700996,48.449935],[7.699984,48.450066],[7.69928,48.45011],[7.698998,48.450175],[7.69843,48.450322],[7.698108,48.45036],[7.697717,48.450378],[7.697317,48.450434],[7.69683,48.450547],[7.695823,48.450802],[7.695287,48.450914],[7.695149,48.450927],[7.69531,48.451175],[7.695322,48.451397],[7.695088,48.451676],[7.695134,48.451865],[7.69529,48.452043],[7.695449,48.45247],[7.694775,48.452562],[7.693881,48.452782],[7.693379,48.452935],[7.694698,48.455005],[7.694947,48.45517],[7.696256,48.456093],[7.696338,48.456274],[7.696516,48.456488],[7.696806,48.456937],[7.697009,48.457168],[7.696235,48.458627],[7.696195,48.459412],[7.696049,48.460014],[7.695714,48.460747],[7.695475,48.461119],[7.695266,48.461374],[7.695041,48.461546],[7.694953,48.461716],[7.69497,48.462145],[7.695058,48.462192],[7.695404,48.462502],[7.695558,48.462693],[7.695602,48.462818],[7.695583,48.463036],[7.695508,48.463243],[7.695661,48.463634],[7.695628,48.463833],[7.695189,48.465139],[7.694459,48.467143],[7.694431,48.467522],[7.694498,48.467963],[7.694694,48.468296],[7.694936,48.468493],[7.695248,48.468612],[7.694761,48.46967],[7.694611,48.469881],[7.694362,48.470076],[7.693897,48.470686],[7.693799,48.470851],[7.693803,48.471053],[7.693999,48.471222],[7.694547,48.471492],[7.694784,48.471578],[7.695067,48.471789],[7.69552,48.472245],[7.695593,48.472244],[7.69557,48.472602],[7.695681,48.472843],[7.696123,48.472927],[7.696337,48.473091],[7.696653,48.473196],[7.697227,48.473428],[7.696476,48.474009],[7.696241,48.474246],[7.696213,48.474761],[7.696245,48.475546],[7.696173,48.475814],[7.695974,48.476133],[7.695726,48.476425],[7.695734,48.47709],[7.695772,48.477354],[7.695849,48.477542],[7.696061,48.477723],[7.69612,48.477821],[7.696126,48.478016],[7.696319,48.478082],[7.696736,48.478311],[7.697192,48.478593],[7.697712,48.478949],[7.698245,48.479399],[7.698422,48.479696],[7.698488,48.480044],[7.698509,48.480401],[7.698465,48.480621],[7.698153,48.481637],[7.698173,48.48199],[7.698258,48.482265],[7.697691,48.482078],[7.697343,48.482097],[7.696819,48.482042],[7.696721,48.482004],[7.696671,48.48181],[7.696516,48.481682],[7.696442,48.481478],[7.695043,48.481552],[7.694729,48.481722],[7.694395,48.482089],[7.693485,48.482186],[7.692949,48.482268],[7.692613,48.482716],[7.692207,48.482715],[7.69197,48.482445],[7.690844,48.48256],[7.690617,48.482553],[7.690018,48.482658],[7.690249,48.483242],[7.690109,48.4836],[7.688723,48.483762],[7.688129,48.483729],[7.68792,48.483621],[7.687482,48.483548],[7.686035,48.483525],[7.685476,48.483533],[7.684363,48.483573],[7.683903,48.483606],[7.682765,48.483773],[7.683262,48.484424],[7.683579,48.484727],[7.684034,48.485003],[7.68415,48.485275],[7.684193,48.485782],[7.684171,48.486011],[7.684065,48.486436],[7.684009,48.486822],[7.683493,48.486779],[7.683271,48.487069],[7.682898,48.487254],[7.682466,48.488016],[7.681671,48.487523],[7.681776,48.48698],[7.681917,48.486961],[7.68168,48.486432],[7.681552,48.485938],[7.681266,48.485588],[7.680909,48.485624],[7.6806,48.485556],[7.680362,48.485531],[7.679702,48.485602],[7.679387,48.485924],[7.679202,48.486186],[7.67904,48.486053],[7.678643,48.486296],[7.678441,48.486982],[7.678357,48.487394],[7.678049,48.487481],[7.677685,48.487542],[7.677406,48.487553],[7.674836,48.487443],[7.673497,48.487415],[7.672597,48.487414],[7.671912,48.487454],[7.671498,48.487543],[7.670253,48.487841],[7.669597,48.487797],[7.667785,48.487661],[7.667331,48.487542],[7.666347,48.486981],[7.666202,48.486842],[7.66595,48.486514],[7.665235,48.486025],[7.664961,48.485823],[7.664727,48.485607],[7.664421,48.485264],[7.664272,48.48518],[7.664058,48.48512],[7.663569,48.485065],[7.662499,48.485042],[7.662118,48.485003],[7.661394,48.484851],[7.660516,48.484603],[7.66015,48.484476],[7.66001,48.484378],[7.6595,48.483951],[7.658105,48.482578],[7.65701,48.481451],[7.656837,48.481288],[7.656484,48.480844],[7.656342,48.480539],[7.656269,48.480098],[7.656274,48.479514],[7.656311,48.47918],[7.656233,48.478977],[7.656105,48.478834],[7.654981,48.478459],[7.654539,48.478333],[7.654399,48.478255],[7.653888,48.477553],[7.653592,48.477406],[7.653111,48.477257],[7.64933,48.477087],[7.648935,48.476956],[7.648722,48.476823],[7.648576,48.476689],[7.648369,48.476383],[7.648201,48.476073],[7.647985,48.475987],[7.647568,48.475931],[7.647282,48.475946],[7.646676,48.47602],[7.646473,48.476075],[7.64613,48.476314],[7.645267,48.47728],[7.64501,48.477541],[7.644665,48.477754],[7.644178,48.477844],[7.64367,48.477852],[7.643482,48.477832],[7.643167,48.477743],[7.642364,48.477161],[7.642229,48.477085],[7.641976,48.477021],[7.641786,48.477025],[7.641378,48.477127],[7.640807,48.477231],[7.640396,48.477192],[7.640157,48.477114],[7.639991,48.477398],[7.639996,48.477505],[7.639795,48.477851],[7.639747,48.478128],[7.639686,48.478223],[7.639468,48.478271],[7.639486,48.478385],[7.63935,48.478395],[7.639439,48.479696],[7.639385,48.480134],[7.63915,48.480949],[7.639333,48.480991],[7.639294,48.481282],[7.639203,48.481394],[7.63879,48.481454],[7.638496,48.481525],[7.638258,48.481955],[7.637911,48.482832],[7.637814,48.482898],[7.637341,48.482973],[7.636319,48.483086],[7.634778,48.483312],[7.634835,48.483179],[7.634684,48.483034],[7.634384,48.482886],[7.634276,48.482785],[7.633915,48.482617],[7.633363,48.482147],[7.632597,48.481678],[7.632542,48.481608],[7.632543,48.481136],[7.632708,48.481041],[7.632768,48.480941],[7.632611,48.480655],[7.632429,48.480525],[7.632126,48.48039],[7.631888,48.480318],[7.631672,48.479964],[7.631762,48.479679],[7.631914,48.47947],[7.631944,48.479371],[7.631936,48.479067],[7.631719,48.47893],[7.631409,48.478908],[7.630564,48.478773],[7.630399,48.478815],[7.629903,48.479],[7.62973,48.479002],[7.629341,48.478796],[7.629109,48.478826],[7.628751,48.478998],[7.628473,48.479023],[7.628221,48.47894],[7.627878,48.478902],[7.627613,48.478911],[7.627325,48.478961],[7.626794,48.478957],[7.626595,48.479083],[7.626429,48.479116],[7.626176,48.479108],[7.625922,48.479242],[7.625314,48.479249],[7.62506,48.479329],[7.624874,48.479101],[7.624695,48.479022],[7.624366,48.479054],[7.624238,48.478926],[7.624006,48.478789],[7.623419,48.478674],[7.623168,48.478781],[7.622885,48.478741],[7.622801,48.478564],[7.6227,48.478512],[7.62235,48.478464],[7.621989,48.478365],[7.621642,48.478372],[7.621368,48.478304],[7.621138,48.478201],[7.620565,48.478249],[7.62032,48.478145],[7.619804,48.478086],[7.619647,48.477932],[7.61938,48.477782],[7.618921,48.477776],[7.618687,48.47775],[7.618344,48.47752],[7.617852,48.477486],[7.617645,48.477424],[7.616663,48.477187],[7.616179,48.477176],[7.615649,48.477068],[7.615334,48.476982],[7.615213,48.476898],[7.61471,48.476899],[7.61389,48.476864],[7.613895,48.476844],[7.612881,48.4768],[7.612836,48.476977],[7.612458,48.476874],[7.612281,48.476743],[7.611992,48.476724],[7.611554,48.476486],[7.61123,48.476396],[7.610994,48.476172],[7.610809,48.476118],[7.610447,48.476087],[7.610036,48.475922],[7.609829,48.475701],[7.609281,48.47559],[7.609054,48.47549],[7.608723,48.475306],[7.608443,48.475047],[7.608297,48.47501],[7.605987,48.47643],[7.605911,48.476421],[7.60514,48.4769],[7.604985,48.477012],[7.604761,48.477257],[7.604511,48.477284],[7.603672,48.477901],[7.603705,48.477936],[7.603274,48.478213],[7.603235,48.4782],[7.6024,48.478739],[7.601175,48.479495],[7.599298,48.480712],[7.599027,48.480974],[7.59896,48.48093],[7.597785,48.481644],[7.596369,48.482616],[7.59481,48.483672],[7.592873,48.484872],[7.592155,48.485379],[7.592072,48.48536],[7.591676,48.48559],[7.59167,48.485722],[7.591866,48.486659],[7.592026,48.486928],[7.592267,48.487],[7.592318,48.487092],[7.592226,48.487232],[7.592328,48.4877],[7.592395,48.488375],[7.592391,48.488569],[7.592495,48.489114],[7.592465,48.489282],[7.592549,48.489818],[7.592567,48.490456],[7.594083,48.490736],[7.594006,48.491327],[7.594012,48.492511],[7.594264,48.492546],[7.593898,48.494257],[7.59367,48.494226],[7.593247,48.495276],[7.594784,48.495456],[7.593951,48.49719],[7.59366,48.497858],[7.592935,48.498917],[7.591781,48.500713],[7.590723,48.50245],[7.590245,48.503221],[7.590158,48.503734],[7.590028,48.503838],[7.590257,48.5039],[7.589568,48.505554],[7.588718,48.507142],[7.589005,48.50727],[7.587977,48.508969],[7.587914,48.509126],[7.587533,48.508939],[7.585719,48.512797],[7.586362,48.512949],[7.588163,48.513409],[7.589224,48.513487],[7.591046,48.513623],[7.591224,48.513542],[7.59152,48.511851],[7.591574,48.511716],[7.592287,48.511408],[7.592632,48.511611],[7.594309,48.51252],[7.596349,48.513614],[7.597693,48.514345],[7.600502,48.515892],[7.608192,48.520034],[7.608051,48.520048],[7.609781,48.521054],[7.610918,48.521676],[7.611745,48.522057],[7.611715,48.522131],[7.611187,48.522072],[7.6111,48.522472],[7.611747,48.524382],[7.611749,48.524475],[7.612032,48.524454],[7.613246,48.52442],[7.613515,48.524449],[7.613473,48.525026],[7.613438,48.526098],[7.613194,48.527699],[7.613247,48.527888],[7.613192,48.529033],[7.612888,48.529725],[7.611465,48.530927],[7.611381,48.531054],[7.610736,48.531815],[7.610625,48.531913],[7.609257,48.535129],[7.608742,48.536295],[7.608151,48.536169],[7.607988,48.536179],[7.607811,48.536034],[7.607202,48.535861],[7.606687,48.536501],[7.606676,48.536565],[7.606896,48.536861],[7.607047,48.536961],[7.607256,48.537032],[7.608611,48.537434],[7.608902,48.537827],[7.607684,48.539474],[7.607207,48.53942],[7.606149,48.541833],[7.605996,48.542223],[7.605673,48.542241],[7.605371,48.543264],[7.605728,48.543649],[7.606172,48.544057],[7.606622,48.544512],[7.606914,48.544917],[7.606751,48.544913],[7.606095,48.544765],[7.605642,48.545171],[7.605484,48.545337],[7.604989,48.546032],[7.60435,48.547036],[7.604902,48.54711],[7.604838,48.547328],[7.605772,48.547438],[7.605994,48.548419],[7.605963,48.548927],[7.606222,48.548924],[7.606137,48.549787],[7.60608,48.550186],[7.604899,48.550249],[7.604714,48.551254],[7.604244,48.551283],[7.603487,48.552616],[7.603338,48.552892],[7.601864,48.553888],[7.601265,48.554277],[7.601114,48.553722],[7.600969,48.553088],[7.600886,48.552227],[7.600933,48.55188],[7.59937,48.552247],[7.598685,48.550685],[7.598056,48.550775],[7.597965,48.550829],[7.597666,48.550207],[7.597419,48.55039],[7.596532,48.55019],[7.596222,48.550105],[7.595469,48.549938],[7.594188,48.550292],[7.593405,48.550605],[7.59218,48.551319],[7.591509,48.551436],[7.590142,48.551587],[7.587352,48.55198],[7.587159,48.551855],[7.587385,48.55307],[7.587364,48.553155],[7.586973,48.55322],[7.587066,48.553743],[7.587392,48.554554],[7.587458,48.554577],[7.587576,48.555213],[7.587692,48.555155],[7.588188,48.555919],[7.58781,48.556449],[7.586685,48.556736],[7.582998,48.558202],[7.582906,48.558288],[7.582594,48.558354],[7.582318,48.558363],[7.579622,48.559119],[7.578998,48.558892],[7.579687,48.55815],[7.578791,48.557226],[7.577772,48.556963],[7.577305,48.556716],[7.576689,48.556561],[7.576707,48.556855],[7.576438,48.556871],[7.576123,48.556983],[7.575805,48.55713],[7.575414,48.557266],[7.574862,48.557488],[7.574653,48.55752],[7.574549,48.558171],[7.573289,48.558381],[7.572716,48.558487],[7.572732,48.558557],[7.571702,48.559232],[7.571803,48.559534],[7.571719,48.559704],[7.571163,48.560103],[7.570851,48.560167],[7.570017,48.560238],[7.570104,48.56052],[7.570313,48.560865],[7.57081,48.562174],[7.570957,48.562488],[7.571038,48.562584],[7.571584,48.56345],[7.572346,48.564816],[7.57306,48.566674],[7.573319,48.567656],[7.573468,48.568404],[7.573517,48.568997],[7.573525,48.570396],[7.573478,48.570786],[7.573404,48.571195],[7.573356,48.57158],[7.573167,48.572263],[7.573212,48.57298],[7.573244,48.573209],[7.573385,48.573888],[7.573633,48.573942],[7.575664,48.574233],[7.576506,48.574389],[7.577826,48.574699],[7.578584,48.574859],[7.579313,48.575049],[7.580113,48.575315],[7.580568,48.575468],[7.581657,48.575901],[7.582836,48.576276],[7.585111,48.576982],[7.585163,48.577079],[7.589922,48.578162],[7.590324,48.578256],[7.590883,48.578478],[7.589493,48.579179],[7.589044,48.579411],[7.588521,48.579616],[7.587011,48.580119],[7.586783,48.580207],[7.586408,48.580302],[7.583875,48.58061],[7.583284,48.58072],[7.582143,48.580884],[7.581798,48.580964],[7.581026,48.581173],[7.580106,48.581367],[7.579271,48.581508],[7.578905,48.581545],[7.575545,48.581837],[7.573242,48.582132],[7.572273,48.581957],[7.570818,48.581914],[7.567396,48.582272],[7.566254,48.582413],[7.565545,48.58242],[7.564626,48.582488],[7.563773,48.582407],[7.562559,48.58225],[7.561158,48.582583],[7.559637,48.582703],[7.559201,48.582621],[7.558436,48.582803],[7.558365,48.582743],[7.558315,48.582309],[7.557103,48.582222],[7.556742,48.582219],[7.556495,48.582163],[7.556284,48.582329],[7.556105,48.582426],[7.555562,48.582558],[7.555327,48.582557],[7.554376,48.582376],[7.554061,48.582437],[7.553934,48.582618],[7.552217,48.582798],[7.552137,48.583129],[7.552093,48.583463],[7.55186,48.583555],[7.551462,48.583631],[7.550956,48.583672],[7.550471,48.583761],[7.549212,48.583958],[7.548708,48.584053],[7.548192,48.58413],[7.547693,48.584223],[7.546941,48.584299],[7.546424,48.584326],[7.545604,48.584309],[7.545333,48.584284],[7.544478,48.584138],[7.544432,48.584573],[7.544441,48.58485],[7.544539,48.584865],[7.545664,48.58469],[7.545797,48.584688],[7.545719,48.585661],[7.545709,48.5863],[7.54523,48.58637],[7.544965,48.586594],[7.54465,48.586744],[7.544397,48.58699],[7.544269,48.587213],[7.543979,48.587323],[7.543699,48.587474],[7.543521,48.587528],[7.543081,48.587748],[7.542833,48.587949],[7.542356,48.588242],[7.541873,48.588574],[7.541416,48.588955],[7.541142,48.589133],[7.540936,48.589357],[7.540861,48.589587],[7.540657,48.590051],[7.540472,48.590356],[7.540457,48.590486],[7.540363,48.590695],[7.540457,48.590958],[7.540458,48.591453],[7.54038,48.591657],[7.540388,48.591781],[7.540315,48.592012],[7.540174,48.592139],[7.540064,48.592349],[7.540078,48.592584],[7.539956,48.59267],[7.539558,48.592782],[7.539247,48.593059],[7.539139,48.593288],[7.539155,48.593519],[7.539136,48.593975],[7.539155,48.594298],[7.539111,48.594527],[7.538685,48.594692],[7.53819,48.594938],[7.537935,48.594992],[7.537843,48.595086],[7.537897,48.595461],[7.537787,48.595773],[7.537836,48.595926],[7.53802,48.596043],[7.538015,48.596337],[7.539364,48.596642],[7.539466,48.596646],[7.540582,48.597113],[7.542448,48.597863],[7.542847,48.598036],[7.544656,48.598708],[7.545515,48.599009],[7.547491,48.599649],[7.548699,48.60003],[7.548895,48.600123],[7.548971,48.600211],[7.549494,48.600358],[7.550769,48.600666],[7.551024,48.600739],[7.551193,48.600909],[7.551316,48.600824],[7.551465,48.60086],[7.552026,48.600709],[7.552773,48.600669],[7.553474,48.600589],[7.554008,48.600579],[7.554349,48.600602],[7.555829,48.600783],[7.556489,48.600889],[7.557654,48.601113],[7.558577,48.601314],[7.558822,48.601377],[7.560871,48.601788],[7.561414,48.601935],[7.561607,48.601545],[7.562363,48.601681],[7.56361,48.601863],[7.56486,48.602164],[7.565177,48.601807],[7.565563,48.600537],[7.566843,48.600884],[7.566902,48.600662],[7.56717,48.600116],[7.566629,48.600056],[7.566453,48.600011],[7.56712,48.598616],[7.567313,48.598027],[7.567496,48.597688],[7.56795,48.596931],[7.568076,48.596769],[7.568396,48.596269],[7.568688,48.595771],[7.568917,48.595327],[7.569323,48.595419],[7.569938,48.594729],[7.570097,48.594564],[7.570528,48.59403],[7.570759,48.593785],[7.57128,48.593092],[7.570567,48.592974],[7.570551,48.592732],[7.570729,48.592714],[7.571588,48.59258],[7.573074,48.592426],[7.573497,48.592481],[7.574047,48.592443],[7.574631,48.59245],[7.575526,48.592425],[7.5757,48.592471],[7.575877,48.592143],[7.576085,48.591919],[7.576537,48.591568],[7.576926,48.591347],[7.576796,48.591276],[7.577774,48.590895],[7.578102,48.590806],[7.577929,48.590211],[7.578923,48.590189],[7.579046,48.590165],[7.579555,48.590147],[7.580548,48.590012],[7.581476,48.589798],[7.582044,48.589619],[7.581998,48.589342],[7.58221,48.589314],[7.583712,48.589241],[7.583797,48.588716],[7.585218,48.588859],[7.585333,48.588552],[7.586806,48.588854],[7.587017,48.588356],[7.587162,48.588159],[7.587478,48.588239],[7.588559,48.588436],[7.588681,48.588274],[7.588915,48.58782],[7.591046,48.588236],[7.590884,48.588864],[7.591243,48.58889],[7.592214,48.589012],[7.592939,48.589093],[7.59308,48.589096],[7.593405,48.589009],[7.595305,48.589009],[7.595896,48.589056],[7.597267,48.58928],[7.597943,48.589359],[7.598898,48.589485],[7.598934,48.588954],[7.599487,48.589049],[7.600604,48.589315],[7.601803,48.589582],[7.602928,48.589824],[7.603607,48.589984],[7.604361,48.590128],[7.606051,48.590532],[7.606825,48.590711],[7.608183,48.591014],[7.609742,48.591378],[7.610291,48.591514],[7.610829,48.591722],[7.610356,48.591986],[7.610029,48.592223],[7.609101,48.592808],[7.608728,48.593088],[7.612659,48.594152],[7.613889,48.594493],[7.614413,48.594657],[7.615178,48.594913],[7.615952,48.595104],[7.618128,48.595533],[7.61875,48.595676],[7.619858,48.595886],[7.621071,48.596175],[7.621096,48.596221],[7.621004,48.596636],[7.620674,48.597883],[7.624535,48.598191],[7.627513,48.598883],[7.628178,48.597879],[7.628464,48.597958],[7.628652,48.597859],[7.628825,48.597907],[7.629671,48.598216],[7.629953,48.598317],[7.630881,48.598611],[7.629526,48.600611],[7.631653,48.600688],[7.632524,48.600713],[7.632282,48.601326],[7.631757,48.602765],[7.634323,48.602861],[7.634223,48.603884],[7.634243,48.60445],[7.634233,48.604855],[7.634185,48.605252],[7.634011,48.605861],[7.633924,48.60604],[7.63367,48.606455],[7.633363,48.606834],[7.632582,48.607649],[7.632416,48.607846],[7.633035,48.608077],[7.634037,48.608741],[7.635083,48.609401],[7.636154,48.609863],[7.636459,48.610043],[7.636742,48.610121],[7.637959,48.610664],[7.638428,48.610854],[7.640091,48.611674],[7.640337,48.611819],[7.641174,48.612127],[7.642206,48.612377],[7.643463,48.612482],[7.644331,48.612507],[7.645858,48.612402],[7.649036,48.612332],[7.649393,48.612282],[7.649944,48.612152],[7.650664,48.611844],[7.651214,48.611576],[7.65227,48.611097],[7.652584,48.610837],[7.653742,48.610396],[7.653898,48.610717],[7.654924,48.61064],[7.654877,48.610501],[7.654597,48.610242],[7.654532,48.61013],[7.654554,48.61002],[7.654478,48.609946],[7.655899,48.610246],[7.65931,48.610986],[7.660957,48.611432],[7.661279,48.611608],[7.662292,48.611768],[7.665252,48.612183],[7.66665,48.612359],[7.666712,48.612339],[7.668223,48.612589],[7.668484,48.612499],[7.6686,48.612622],[7.669532,48.613244],[7.669659,48.613483],[7.66976,48.613525],[7.670194,48.614063],[7.670324,48.61405],[7.670794,48.614453],[7.671252,48.614946],[7.673083,48.616611],[7.673825,48.61731],[7.674231,48.61779],[7.674465,48.618037],[7.674663,48.61818],[7.674997,48.618485],[7.675281,48.618697],[7.675942,48.619341],[7.67622,48.61959],[7.676742,48.620016],[7.677364,48.620419],[7.67753,48.620498],[7.678631,48.620959],[7.679323,48.621214],[7.679461,48.621029],[7.679875,48.620916],[7.680052,48.62089],[7.680702,48.62092],[7.681017,48.620883],[7.681688,48.620706],[7.682234,48.620425],[7.68253,48.620221],[7.682832,48.619981],[7.683138,48.619792],[7.683334,48.619598],[7.683343,48.619523],[7.684691,48.620042],[7.684757,48.619999],[7.685212,48.619526],[7.685747,48.619824],[7.685995,48.619501],[7.686832,48.620002],[7.687803,48.620641],[7.68899,48.621373],[7.689616,48.621713],[7.688577,48.622563],[7.689524,48.622827],[7.689272,48.623383],[7.689044,48.623352],[7.689105,48.624962],[7.689138,48.625485],[7.69086,48.62525],[7.690868,48.625431],[7.690935,48.625727],[7.690877,48.625807],[7.690465,48.626111],[7.690334,48.626329],[7.690497,48.626813],[7.690589,48.626992],[7.691127,48.627864],[7.691321,48.628043],[7.691835,48.628366],[7.69219,48.62852],[7.692411,48.628566],[7.692769,48.628747],[7.693741,48.629045],[7.692402,48.630026],[7.69245,48.630169],[7.692418,48.630604],[7.692437,48.631103],[7.692544,48.631866],[7.69372,48.632125],[7.693774,48.632287],[7.693741,48.632395],[7.694737,48.632679],[7.694625,48.632894],[7.69511,48.633008],[7.695718,48.633198],[7.696373,48.633423],[7.696895,48.633692],[7.697325,48.634031],[7.69789,48.634695],[7.698125,48.634897],[7.698404,48.635056],[7.699985,48.636024],[7.700066,48.636095],[7.700169,48.636343],[7.700881,48.63693],[7.700532,48.637175],[7.700871,48.637635],[7.701124,48.638025],[7.701198,48.638261],[7.701137,48.638622],[7.701019,48.639132],[7.701569,48.639262],[7.701445,48.639603],[7.701385,48.639861],[7.701397,48.64025],[7.701523,48.640646],[7.70055,48.64041],[7.700514,48.640599],[7.700401,48.640562],[7.697266,48.640521],[7.696816,48.640496],[7.696655,48.641088],[7.696544,48.641572],[7.69636,48.642205],[7.696117,48.642677],[7.693509,48.642433],[7.693182,48.642787],[7.69244,48.643458],[7.691829,48.644048],[7.689955,48.643529],[7.689306,48.644545],[7.689318,48.64466],[7.68891,48.644613],[7.687017,48.644444],[7.686688,48.644426],[7.68628,48.644774],[7.685463,48.644722],[7.68458,48.645293],[7.684065,48.645733],[7.683887,48.645854],[7.682278,48.646485],[7.682046,48.646607],[7.681971,48.646692],[7.682414,48.646729],[7.682856,48.646743],[7.682511,48.647257],[7.682417,48.647327],[7.680928,48.648069],[7.679248,48.647824],[7.679649,48.648685],[7.678218,48.649165],[7.678269,48.650205],[7.676396,48.650984],[7.674887,48.651245],[7.67489,48.651553],[7.674322,48.651651],[7.672263,48.652166],[7.671514,48.652482],[7.670547,48.652906],[7.669051,48.653546],[7.668918,48.653588],[7.668621,48.653611],[7.668794,48.65387],[7.669122,48.655028],[7.669689,48.654876],[7.67021,48.654704],[7.670786,48.654553],[7.671067,48.655126],[7.671227,48.655518],[7.67169,48.656417],[7.670897,48.656669],[7.671262,48.657376],[7.671689,48.658107],[7.671891,48.658545],[7.672137,48.658957],[7.672293,48.659325],[7.670964,48.659519],[7.669968,48.659806],[7.670249,48.6611],[7.669509,48.661306],[7.669464,48.661366],[7.670265,48.661841],[7.670349,48.661863],[7.669883,48.662521],[7.671071,48.663091],[7.672166,48.663463],[7.671801,48.664028],[7.672767,48.664386],[7.67332,48.66442],[7.6737,48.664562],[7.673957,48.664302],[7.674122,48.664402],[7.67506,48.664854],[7.675861,48.66556],[7.676723,48.665879],[7.67654,48.666375],[7.676393,48.667142],[7.677014,48.66712],[7.679503,48.667287],[7.681037,48.667372],[7.681006,48.667756],[7.680872,48.668409],[7.682428,48.668758],[7.682448,48.668947],[7.682903,48.669038],[7.683309,48.669163],[7.683575,48.668824],[7.683728,48.668572],[7.684516,48.668757],[7.686402,48.669067],[7.686102,48.669663],[7.686495,48.66975],[7.686863,48.669798],[7.687086,48.669507],[7.687361,48.669054],[7.687657,48.668434],[7.687997,48.668572],[7.688363,48.668693],[7.688316,48.668738],[7.687433,48.671109],[7.686274,48.670888],[7.685926,48.671568],[7.684064,48.67148],[7.683883,48.671971],[7.683715,48.672178],[7.683362,48.672527],[7.683441,48.672596],[7.683464,48.673498],[7.683315,48.673588],[7.682603,48.673581],[7.682557,48.673737],[7.682374,48.674104],[7.682457,48.675135],[7.682527,48.675742],[7.681323,48.675961],[7.678543,48.676528],[7.67797,48.676738],[7.677792,48.676842],[7.677481,48.676685],[7.676795,48.676424],[7.676468,48.676391],[7.676397,48.676752],[7.674967,48.676173],[7.674998,48.676213],[7.674933,48.677708],[7.674905,48.677803],[7.674729,48.677854],[7.674861,48.678303],[7.674989,48.678653],[7.675145,48.679303],[7.675486,48.679297],[7.6762,48.679219],[7.675723,48.680498],[7.67468,48.68067],[7.673907,48.680899],[7.673773,48.680986],[7.67362,48.681171],[7.673302,48.681628],[7.672902,48.682086],[7.672398,48.682539],[7.672021,48.6828],[7.671143,48.683282],[7.670138,48.683914],[7.671362,48.684634],[7.671301,48.684695],[7.670657,48.684802],[7.669981,48.684956],[7.669066,48.685088],[7.66892,48.685452],[7.668586,48.68635],[7.668969,48.68639],[7.668687,48.687069],[7.668507,48.687737],[7.668847,48.687811],[7.670266,48.688179],[7.670648,48.688295],[7.671925,48.688634],[7.672553,48.688809],[7.672163,48.689508],[7.672622,48.689616],[7.675208,48.690264],[7.67652,48.690583],[7.677195,48.690702],[7.678284,48.690924],[7.67835,48.691039],[7.67816,48.691483],[7.678145,48.691659],[7.67815,48.692419],[7.679407,48.692381],[7.679667,48.692393],[7.680547,48.692359],[7.681446,48.692354],[7.681589,48.692288],[7.681675,48.692026],[7.683159,48.69229],[7.683336,48.692312],[7.684437,48.692695],[7.685534,48.693086],[7.685351,48.693403],[7.685127,48.693666],[7.686419,48.694916],[7.687402,48.694525],[7.687415,48.694573],[7.688395,48.695409],[7.688525,48.695493],[7.688466,48.695576],[7.691469,48.696657],[7.691311,48.696253],[7.691325,48.696118],[7.691446,48.695862],[7.691609,48.695723],[7.691938,48.695319],[7.692146,48.695028],[7.692433,48.694726],[7.692576,48.694535],[7.693791,48.694446],[7.694014,48.69442],[7.694577,48.694664],[7.695091,48.694865],[7.695628,48.695094],[7.695766,48.695251],[7.695897,48.695486],[7.696377,48.695994],[7.696998,48.696721],[7.697618,48.696969],[7.697979,48.697093],[7.698679,48.697269],[7.699023,48.697314],[7.699676,48.697278],[7.700263,48.697259],[7.700562,48.69729],[7.701002,48.697554],[7.701386,48.697722],[7.701936,48.698053],[7.702559,48.698379],[7.703001,48.698733],[7.704404,48.699304],[7.704719,48.699386],[7.704945,48.699371],[7.705045,48.69941],[7.706869,48.700736],[7.707115,48.701068],[7.707362,48.701179],[7.7074,48.701385],[7.708827,48.701725],[7.709902,48.702314],[7.710247,48.70226],[7.711508,48.702116],[7.711955,48.700644],[7.71222,48.699686],[7.7127,48.697837],[7.713308,48.695302],[7.713426,48.694751],[7.714165,48.691033],[7.714405,48.6899],[7.714843,48.687644],[7.715201,48.685948],[7.715457,48.685987],[7.71649,48.686012],[7.716868,48.686039],[7.71795,48.686165],[7.718618,48.686226],[7.718837,48.686265],[7.719054,48.686353],[7.719025,48.686026],[7.719672,48.68644],[7.720659,48.686922],[7.721736,48.687394],[7.721987,48.687481],[7.722482,48.687494],[7.723303,48.687575],[7.724776,48.687594],[7.725412,48.687584],[7.725906,48.687537],[7.727813,48.687542],[7.728418,48.687474],[7.729957,48.687333],[7.731266,48.687239],[7.73326,48.687185],[7.735419,48.687084],[7.735902,48.687057],[7.738459,48.686946],[7.739269,48.686893],[7.740576,48.686835],[7.742639,48.68672],[7.743549,48.686683],[7.74431,48.686638],[7.74517,48.686606],[7.746354,48.686534],[7.747236,48.686517],[7.747266,48.685439],[7.747269,48.684492],[7.747231,48.684085],[7.747115,48.683218],[7.74703,48.682829],[7.746802,48.681373],[7.746645,48.680051],[7.74662,48.679614],[7.746683,48.679318],[7.746833,48.678885],[7.747184,48.678258],[7.747064,48.677307],[7.74704,48.676821],[7.746885,48.676254],[7.746713,48.675869],[7.746537,48.675376],[7.746241,48.674705],[7.745987,48.674062],[7.745539,48.673122],[7.745421,48.672916],[7.746071,48.672982],[7.746373,48.672939],[7.747033,48.672703],[7.747689,48.672391],[7.747876,48.672322],[7.748767,48.672258],[7.74883,48.672313],[7.750357,48.673031],[7.750485,48.673108],[7.75111,48.673128],[7.751722,48.673128],[7.752243,48.673158],[7.752934,48.673255],[7.753553,48.67326],[7.754031,48.673189],[7.754585,48.673074],[7.755006,48.672971],[7.7554,48.672848],[7.756016,48.672726],[7.756709,48.672568],[7.757033,48.67248],[7.757485,48.672389],[7.758273,48.672089],[7.758923,48.671868],[7.75987,48.67148],[7.760961,48.670786],[7.761716,48.670255],[7.762048,48.669879],[7.762385,48.669351],[7.762774,48.669214],[7.764039,48.668822],[7.76427,48.668306],[7.764306,48.667968],[7.765062,48.66732],[7.765803,48.667123],[7.767064,48.666749],[7.767418,48.666612],[7.768007,48.666421],[7.769204,48.668209],[7.769537,48.668771],[7.76978,48.669342],[7.769948,48.669472],[7.770334,48.669679],[7.770841,48.669905],[7.771302,48.670134],[7.77211,48.670189],[7.773307,48.670243],[7.773587,48.670242],[7.774474,48.669932],[7.775084,48.669783],[7.775536,48.669742],[7.775845,48.669631],[7.776788,48.669449],[7.777292,48.669308],[7.777483,48.669152],[7.777683,48.66891],[7.778044,48.668529],[7.778417,48.668739],[7.77917,48.669192],[7.779635,48.669403],[7.779908,48.669497],[7.781265,48.669805],[7.781657,48.6698],[7.782642,48.669821],[7.783184,48.66987],[7.78353,48.669862],[7.78411,48.669906],[7.786612,48.669943],[7.78709,48.669901],[7.788237,48.669836],[7.788803,48.669828],[7.790446,48.669756],[7.791008,48.669716],[7.792433,48.669635],[7.793455,48.66955],[7.794383,48.669492],[7.795731,48.669384],[7.796521,48.669346],[7.7966,48.669452],[7.796892,48.669695],[7.797126,48.669837],[7.797489,48.670159],[7.797687,48.670386],[7.797991,48.670598],[7.798137,48.670738],[7.798471,48.670992],[7.799213,48.671622],[7.79939,48.671804],[7.799724,48.672095],[7.80029,48.672537],[7.800885,48.673056],[7.801981,48.673949],[7.802638,48.674467],[7.803484,48.675194],[7.803844,48.675493],[7.804368,48.675956],[7.80512,48.676603],[7.805385,48.676801],[7.806014,48.67737],[7.806527,48.677785],[7.807056,48.678238],[7.807333,48.6785],[7.808011,48.679048],[7.808462,48.679459],[7.808888,48.679807],[7.809379,48.680177],[7.809695,48.680458],[7.809914,48.680625],[7.810314,48.680976],[7.810472,48.681141],[7.811339,48.681848],[7.813446,48.683652],[7.813738,48.683856],[7.814051,48.684142],[7.816291,48.686011],[7.817566,48.687147],[7.817867,48.687442],[7.818238,48.68723],[7.8185,48.687119],[7.819662,48.686479],[7.820588,48.685947],[7.822117,48.685045],[7.823066,48.684566],[7.823897,48.684044],[7.824332,48.683789],[7.825559,48.683019],[7.825986,48.682724],[7.826741,48.682227],[7.827043,48.682052],[7.827383,48.681981],[7.827806,48.681663],[7.828187,48.681447],[7.828331,48.681338],[7.828958,48.680964],[7.82972,48.68048],[7.829835,48.680384],[7.831021,48.679711],[7.832482,48.680235],[7.834302,48.680903],[7.835469,48.679884],[7.835783,48.680072],[7.837262,48.679055],[7.837438,48.678958],[7.838173,48.678613],[7.838675,48.678316],[7.839152,48.677997],[7.839265,48.677974],[7.839828,48.677492],[7.840819,48.676764],[7.841797,48.676117],[7.842279,48.675718],[7.842676,48.675367],[7.841606,48.674845],[7.840066,48.673997],[7.841034,48.673284],[7.841428,48.673028],[7.841494,48.672904],[7.841952,48.672426],[7.842138,48.672161],[7.842427,48.671468],[7.8429,48.670374],[7.84371,48.670537],[7.844376,48.670634],[7.845295,48.669661],[7.845932,48.669892],[7.846335,48.669485],[7.846616,48.669408],[7.84736,48.669312],[7.847772,48.669195],[7.848379,48.669084],[7.849853,48.66874],[7.850001,48.669024],[7.850459,48.668941],[7.850142,48.668311],[7.851171,48.668207],[7.851432,48.66882],[7.851807,48.668433],[7.852166,48.667706],[7.852309,48.667171],[7.852473,48.667195],[7.852728,48.666857],[7.853499,48.667153],[7.85362,48.667108],[7.853858,48.666792],[7.854188,48.666456],[7.854724,48.665944],[7.854869,48.666007],[7.855099,48.665761],[7.855659,48.665984],[7.856316,48.666161],[7.857129,48.666293],[7.857668,48.666437],[7.858287,48.6667],[7.858425,48.666721],[7.859274,48.666984],[7.859413,48.667144],[7.859469,48.6674],[7.859544,48.667913],[7.859518,48.668098],[7.859607,48.66825],[7.858898,48.668885],[7.85882,48.669113],[7.859342,48.669323],[7.859505,48.669254],[7.860187,48.669205],[7.860385,48.669361],[7.860689,48.6697],[7.860668,48.670061],[7.86058,48.670349],[7.859875,48.670456],[7.859861,48.670615],[7.860004,48.671046],[7.860052,48.671321],[7.860054,48.671572],[7.860006,48.671811],[7.860068,48.672065],[7.860144,48.672196],[7.860437,48.672508],[7.860784,48.672597],[7.861207,48.672746],[7.861532,48.67291],[7.861686,48.673017],[7.861756,48.673139],[7.861745,48.673379],[7.861671,48.673766],[7.861736,48.673854],[7.861919,48.673945],[7.863524,48.674664],[7.864006,48.674864],[7.864302,48.675014],[7.864557,48.675111],[7.865655,48.675182],[7.866252,48.675148],[7.866765,48.675084],[7.867427,48.675101],[7.867858,48.675077],[7.868098,48.675116],[7.868209,48.675075],[7.868683,48.675124],[7.869046,48.675135],[7.869892,48.675109],[7.870657,48.675132],[7.871191,48.675161],[7.87229,48.675125],[7.872786,48.675083],[7.873045,48.67496],[7.873218,48.674831],[7.873595,48.674454],[7.873801,48.674273],[7.873993,48.674056],[7.874218,48.67369],[7.874354,48.67352],[7.874574,48.673362],[7.874769,48.673278],[7.875229,48.673141],[7.875799,48.673016],[7.876641,48.67299],[7.876966,48.673001],[7.877517,48.673047],[7.877871,48.67312],[7.878154,48.673218],[7.878746,48.673495],[7.879023,48.673646],[7.880392,48.674538],[7.88082,48.674857],[7.880989,48.674942],[7.881509,48.675095],[7.882251,48.675232],[7.882845,48.675317],[7.88403,48.67544],[7.884616,48.675514],[7.884948,48.675521],[7.885462,48.675613],[7.885894,48.675669],[7.88629,48.675671],[7.886556,48.675625],[7.886882,48.675537],[7.887193,48.675425],[7.8875,48.67525],[7.88781,48.67501],[7.888237,48.673907],[7.887845,48.673617],[7.887469,48.673235],[7.887216,48.672862],[7.88687,48.672292],[7.886472,48.671926],[7.886162,48.671565],[7.885858,48.671036],[7.887103,48.670949],[7.888037,48.670826],[7.889095,48.670804],[7.889232,48.670823],[7.890994,48.670824],[7.891345,48.670598],[7.891549,48.67043],[7.892214,48.669649],[7.893088,48.668775],[7.893843,48.668051],[7.895903,48.666946],[7.894165,48.66553],[7.891935,48.663835],[7.889509,48.662262],[7.887512,48.661156],[7.885424,48.660126],[7.883254,48.659175],[7.881006,48.658305],[7.876624,48.656552],[7.862508,48.650883],[7.848994,48.647125],[7.847745,48.646728],[7.846542,48.646272],[7.845392,48.645758],[7.844302,48.645192],[7.843229,48.644542],[7.842232,48.64384],[7.84132,48.643089],[7.840497,48.642293],[7.839418,48.640998],[7.838574,48.639628],[7.838209,48.639002],[7.837894,48.638385],[7.837667,48.637849],[7.836298,48.634113],[7.836038,48.633367]]]}}